$$SOE
2460154.500000000, A.D. 2023-Jul-29 00:00:00.0000, -6.507135215833476E+07, -3.694013218147349E+08, 3.181760091272846E+06,
2460161.500000000, A.D. 2023-Aug-05 00:00:00.0000, -5.342041232166672E+07, -3.686451031326247E+08, 2.481414430604994E+06,
2460168.500000000, A.D. 2023-Aug-12 00:00:00.0000, -4.171939000301667E+07, -3.675426719352300E+08, 1.778742075120553E+06,
2460175.500000000, A.D. 2023-Aug-19 00:00:00.0000, -2.997844663518290E+07, -3.660877471910529E+08, 1.074367722924769E+06,
2460182.500000000, A.D. 2023-Aug-26 00:00:00.0000, -1.820823247769286E+07, -3.642742423448737E+08, 3.689451270779073E+05,
2460189.500000000, A.D. 2023-Sep-02 00:00:00.0000, -6.419897255084325E+06, -3.620962968907732E+08, -3.368423262842000E+05,
2460196.500000000, A.D. 2023-Sep-09 00:00:00.0000, 5.374900701732985E+06, -3.595483104172531E+08, -1.042281145433664E+06,
2460203.500000000, A.D. 2023-Sep-16 00:00:00.0000, 1.716398726261595E+07, -3.566249792156428E+08, -1.746627403288767E+06,
2460210.500000000, A.D. 2023-Sep-23 00:00:00.0000, 2.893466797663381E+07, -3.533213351737095E+08, -2.449106583422542E+06,
2460217.500000000, A.D. 2023-Sep-30 00:00:00.0000, 4.067372621152138E+07, -3.496327857422025E+08, -3.148913493017495E+06,
2460224.500000000, A.D. 2023-Oct-07 00:00:00.0000, 5.236742195145502E+07, -3.455551554588964E+08, -3.845212092214733E+06,
2460231.500000000, A.D. 2023-Oct-14 00:00:00.0000, 6.400149266497184E+07, -3.410847322434070E+08, -4.537135628244117E+06,
2460238.500000000, A.D. 2023-Oct-21 00:00:00.0000, 7.556115986096914E+07, -3.362183167169962E+08, -5.223787262525529E+06,
2460245.500000000, A.D. 2023-Oct-28 00:00:00.0000, 8.703114030859724E+07, -3.309532720945779E+08, -5.904240898768932E+06,
2460252.500000000, A.D. 2023-Nov-04 00:00:00.0000, 9.839566107656147E+07, -3.252875751681342E+08, -6.577542183956072E+06,
2460259.500000000, A.D. 2023-Nov-11 00:00:00.0000, 1.096384789742327E+08, -3.192198686665958E+08, -7.242709770949975E+06,
2460266.500000000, A.D. 2023-Nov-18 00:00:00.0000, 1.207429050095415E+08, -3.127495146739356E+08, -7.898736890882269E+06,
2460273.500000000, A.D. 2023-Nov-25 00:00:00.0000, 1.316918343121593E+08, -3.058766486280336E+08, -8.544593261703625E+06,
2460280.500000000, A.D. 2023-Dec-02 00:00:00.0000, 1.424677818953752E+08, -2.986022333803713E+08, -9.179227356185302E+06,
2460287.500000000, A.D. 2023-Dec-09 00:00:00.0000, 1.530529246386825E+08, -2.909281127679955E+08, -9.801569058530346E+06,
2460294.500000000, A.D. 2023-Dec-16 00:00:00.0000, 1.634291500281179E+08, -2.828570640057214E+08, -1.041053274842112E+07,
2460301.500000000, A.D. 2023-Dec-23 00:00:00.0000, 1.735781121799005E+08, -2.743928474634129E+08, -1.100502079712445E+07,
2460308.500000000, A.D. 2023-Dec-30 00:00:00.0000, 1.834812938945150E+08, -2.655402519651477E+08, -1.158392727057779E+07,
2460315.500000000, A.D. 2024-Jan-06 00:00:00.0000, 1.931200729515342E+08, -2.563051370954669E+08, -1.214614186743867E+07,
2460322.500000000, A.D. 2024-Jan-13 00:00:00.0000, 2.024757956846065E+08, -2.466944733958105E+08, -1.269055452142322E+07,
2460329.500000000, A.D. 2024-Jan-20 00:00:00.0000, 2.115298587987345E+08, -2.367163764166453E+08, -1.321606051065369E+07,
2460336.500000000, A.D. 2024-Jan-27 00:00:00.0000, 2.202637969964429E+08, -2.263801330159954E+08, -1.372156580843358E+07,
2460343.500000000, A.D. 2024-Feb-03 00:00:00.0000, 2.286593754262547E+08, -2.156962199076007E+08, -1.420599267832328E+07,
2460350.500000000, A.D. 2024-Feb-10 00:00:00.0000, 2.366986865147660E+08, -2.046763138412811E+08, -1.466828551796737E+07,
2460357.500000000, A.D. 2024-Feb-17 00:00:00.0000, 2.443642504467160E+08, -1.933332925645490E+08, -1.510741690950032E+07,
2460364.500000000, A.D. 2024-Feb-24 00:00:00.0000, 2.516391183004623E+08, -1.816812258031127E+08, -1.552239381524656E+07,
2460371.500000000, A.D. 2024-Mar-02 00:00:00.0000, 2.585069766939484E+08, -1.697353556702506E+08, -1.591226385230871E+07,
2460378.500000000, A.D. 2024-Mar-09 00:00:00.0000, 2.649522527751674E+08, -1.575120660967610E+08, -1.627612158484361E+07,
2460385.500000000, A.D. 2024-Mar-16 00:00:00.0000, 2.709602185449491E+08, -1.450288407906532E+08, -1.661311476890565E+07,
2460392.500000000, A.D. 2024-Mar-23 00:00:00.0000, 2.765170929322831E+08, -1.323042085340561E+08, -1.692245035997394E+07,
2460399.500000000, A.D. 2024-Mar-30 00:00:00.0000, 2.816101378590108E+08, -1.193576759941361E+08, -1.720339998811653E+07,
2460406.500000000, A.D. 2024-Apr-06 00:00:00.0000, 2.862277470065051E+08, -1.062096517983621E+08, -1.745530510800272E+07,
2460413.500000000, A.D. 2024-Apr-13 00:00:00.0000, 2.903595293182425E+08, -9.288136164861651E+07, -1.767758199152432E+07,
2460420.500000000, A.D. 2024-Apr-20 00:00:00.0000, 2.939963848522320E+08, -7.939475263708393E+07, -1.786972617209148E+07,
2460427.500000000, A.D. 2024-Apr-27 00:00:00.0000, 2.971305701658573E+08, -6.577238838593478E+07, -1.803131617066238E+07,
2460434.500000000, A.D. 2024-May-04 00:00:00.0000, 2.997557521966408E+08, -5.203733698231721E+07, -1.816201650342259E+07,
2460441.500000000, A.D. 2024-May-11 00:00:00.0000, 3.018670499576257E+08, -3.821305326351763E+07, -1.826157994854508E+07,
2460448.500000000, A.D. 2024-May-18 00:00:00.0000, 3.034610634334633E+08, -2.432325702948119E+07, -1.832984903898402E+07,
2460455.500000000, A.D. 2024-May-25 00:00:00.0000, 3.045358892489586E+08, -1.039180888500017E+07, -1.836675676021431E+07,
2460462.500000000, A.D. 2024-Jun-01 00:00:00.0000, 3.050911229775800E+08, 3.557414488183704E+06, -1.837232645494832E+07,
2460469.500000000, A.D. 2024-Jun-08 00:00:00.0000, 3.051278484105969E+08, 1.750064386106662E+07, -1.834667096744727E+07,
2460476.500000000, A.D. 2024-Jun-15 00:00:00.0000, 3.046486145180315E+08, 3.141433863483318E+07, -1.828999104309188E+07,
2460483.500000000, A.D. 2024-Jun-22 00:00:00.0000, 3.036573996817405E+08, 4.527530524016206E+07, -1.820257283246465E+07,
2460490.500000000, A.D. 2024-Jun-29 00:00:00.0000, 3.021595619107304E+08, 5.906080946221417E+07, -1.808478450612622E+07,
2460497.500000000, A.D. 2024-Jul-06 00:00:00.0000, 3.001617787061714E+08, 7.274867889680921E+07, -1.793707248928990E+07,
2460504.500000000, A.D. 2024-Jul-13 00:00:00.0000, 2.976719796961839E+08, 8.631739723473854E+07, -1.775995733733471E+07,
2460511.500000000, A.D. 2024-Jul-20 00:00:00.0000, 2.946992713541789E+08, 9.974619061179671E+07, -1.755402905581435E+07,
2460518.500000000, A.D. 2024-Jul-27 00:00:00.0000, 2.912538545318221E+08, 1.130151043750355E+08, -1.731994196791450E+07,
2460525.500000000, A.D. 2024-Aug-03 00:00:00.0000, 2.873469365088134E+08, 1.261050694246435E+08, -1.705840927212046E+07,
2460532.500000000, A.D. 2024-Aug-10 00:00:00.0000, 2.829906391573291E+08, 1.389979578821642E+08, -1.677019739263856E+07,
2460539.500000000, A.D. 2024-Aug-17 00:00:00.0000, 2.781979046680270E+08, 1.516766280717277E+08, -1.645612020980766E+07,
2460546.500000000, A.D. 2024-Aug-24 00:00:00.0000, 2.729824002013857E+08, 1.641249589500725E+08, -1.611703325534829E+07,
2460553.500000000, A.D. 2024-Aug-31 00:00:00.0000, 2.673584228267481E+08, 1.763278742540612E+08, -1.575382796284278E+07,
2460560.500000000, A.D. 2024-Sep-07 00:00:00.0000, 2.613408062526252E+08, 1.882713569688577E+08, -1.536742606475212E+07,
2460567.500000000, A.D. 2024-Sep-14 00:00:00.0000, 2.549448304432988E+08, 1.999424557048767E+08, -1.495877412277882E+07,
2460574.500000000, A.D. 2024-Sep-21 00:00:00.0000, 2.481861329568966E+08, 2.113292840836035E+08, -1.452883802228563E+07,
2460581.500000000, A.D. 2024-Sep-28 00:00:00.0000, 2.410806222515818E+08, 2.224210106749990E+08, -1.407859769194382E+07,
2460588.500000000, A.D. 2024-Oct-05 00:00:00.0000, 2.336443972360767E+08, 2.332078402948851E+08, -1.360904242081241E+07,
2460595.500000000, A.D. 2024-Oct-12 00:00:00.0000, 2.258936731621736E+08, 2.436809904609605E+08, -1.312116652268271E+07,
2460602.500000000, A.D. 2024-Oct-19 00:00:00.0000, 2.178447124359441E+08, 2.538326635614551E+08, -1.261596522710083E+07,
2460609.500000000, A.D. 2024-Oct-26 00:00:00.0000, 2.095137605286686E+08, 2.636560147454901E+08, -1.209443087063047E+07,
2460616.500000000, A.D. 2024-Nov-02 00:00:00.0000, 2.009169873523162E+08, 2.731451161652879E+08, -1.155754942878430E+07,
2460623.500000000, A.D. 2024-Nov-09 00:00:00.0000, 1.920704342085574E+08, 2.822949183258829E+08, -1.100629739472376E+07,
2460630.500000000, A.D. 2024-Nov-16 00:00:00.0000, 1.829899662665874E+08, 2.911012092257987E+08, -1.044163900102550E+07,
2460637.500000000, A.D. 2024-Nov-23 00:00:00.0000, 1.736912304753503E+08, 2.995605718654419E+08, -9.864523782744199E+06,
2460644.500000000, A.D. 2024-Nov-30 00:00:00.0000, 1.641896189192101E+08, 3.076703406493563E+08, -9.275884491080090E+06,
2460651.500000000, A.D. 2024-Dec-07 00:00:00.0000, 1.545002377937531E+08, 3.154285576145895E+08, -8.676635346402869E+06,
2460658.500000000, A.D. 2024-Dec-14 00:00:00.0000, 1.446378810406371E+08, 3.228339301598547E+08, -8.067670450847626E+06,
2460665.500000000, A.D. 2024-Dec-21 00:00:00.0000, 1.346170060238070E+08, 3.298857894200553E+08, -7.449862230518773E+06,
2460672.500000000, A.D. 2024-Dec-28 00:00:00.0000, 1.244517129043149E+08, 3.365840466567376E+08, -6.824060310602650E+06,
2460679.500000000, A.D. 2025-Jan-04 00:00:00.0000, 1.141557300013900E+08, 3.429291503277981E+08, -6.191090848491311E+06,
2460686.500000000, A.D. 2025-Jan-11 00:00:00.0000, 1.037424030064950E+08, 3.489220457182134E+08, -5.551756002803639E+06,
2460693.500000000, A.D. 2025-Jan-18 00:00:00.0000, 9.322468681838441E+07, 3.545641363847165E+08, -4.906833509214282E+06,
2460700.500000000, A.D. 2025-Jan-25 00:00:00.0000, 8.261513993247554E+07, 3.598572470714806E+08, -4.257076404588223E+06,
2460707.500000000, A.D. 2025-Feb-01 00:00:00.0000, 7.192592127262035E+07, 3.648035881650352E+08, -3.603212900420949E+06,
2460714.500000000, A.D. 2025-Feb-08 00:00:00.0000, 6.116878923653427E+07, 3.694057217801600E+08, -2.945946391604304E+06,
2460721.500000000, A.D. 2025-Feb-15 00:00:00.0000, 5.035510271624712E+07, 3.736665295049124E+08, -2.285955588468909E+06,
$$EOE